#dP2021 11  9  0  0  0.00000000      96 __u+U ITR00 FIT  IAC
## 2183 172800.00000000   900.00000000 59527 0.0000000000000
+  114   C06C07C08C09C10C11C12C13C14C16C19C20C21C22C23C24C25
+        C26C27C28C29C30C32C33C34C35C36C37C38C39C40C41C42C43
+        C44C45C46E01E02E03E04E05E07E08E09E11E12E13E14E15E18
+        E19E21E24E25E26E27E30E31E33E36G01G02G03G04G05G06G07
+        G08G09G10G11G12G13G14G15G16G17G18G19G20G21G22G23G24
+        G25G26G27G28G29G30G31G32R01R02R03R04R05R07R08R09R11
+        R12R13R14R15R16R17R18R19R20R21R22R24  0  0  0  0  0
++         7  7  8  6  6  7  6  7  7  8  6  8  8  6  7  8  5
++         6  7  7  6  7  5  6  7  7  9  9  9  8  9  7  7  8
++         9  8  8  5  7  6  6  8  7  8  6  7  8  7  5  8  6
++         6  5  4  6  8  5  7  6  8  7  7  7  6  5  6  7  7
++         5  5  7  8  6  6  5  5  6  6  6  6  6  6  5  7  5
++         7  6  6  5  5  6  6  6  7  6  6  7  8  6  5  7  5
++         8  6  6  6  6  8  6  7  8  5  7  6  0  0  0  0  0
%c M  cc GPS ccc cccc cccc cccc cccc ccccc ccccc ccccc ccccc
%c cc cc ccc ccc cccc cccc cccc cccc ccccc ccccc ccccc ccccc
%f  0.0000000  0.000000000  0.00000000000  0.000000000000000
%f  0.0000000  0.000000000  0.00000000000  0.000000000000000
%i    0    0    0    0      0      0      0      0         0
%i    0    0    0    0      0      0      0      0         0
/* INFORMATION & ANALYSIS CENTER (IAC)      ULTRA-RAPID DATA
/* S/V CLOCKS ARE ALIGNED TO GNSS TIME                      
/* G:C1WC2W R:C1PC2P E:C1XC5X C:C2IC6I J:C1CC2S             
/* PCV:IGS14_2163 OL/AL:FES2004  NONE     YN ORB:CoN CLK:CoN
*  2021 11 09 13 45  0.00000000
PC06 -10864.683532  40597.834131  -1875.737058    461.947937
PC07  -4222.319607  28534.332817  30800.497234   -311.642211
PC08 -17236.034219  24128.673267 -30042.305689   -785.724009
PC09  -6522.435695  40918.688594   6609.771343   -252.875940
PC10   4627.550200  31805.792835  27766.914909     11.432303
PC11 -13985.197215  21136.259191  11800.731464    680.460368
PC12 -16233.328097   3386.992849  22490.169262    726.490326
PC13 -10389.490662  25275.263546 -32084.933992    469.649307
PC14 -11573.789678  10915.647142 -22912.536041    543.547963
PC16 -13306.899660  39344.100342  -6362.005566   -729.214475
PC19   2573.650142 -17889.035409  21275.378572    937.557470
PC20  17481.616038  -3690.014188  21447.011768   -790.550115
PC21 -22740.420191 -13580.854607  -8755.645821   -935.262574
PC22 -14354.939694 -22266.641628   8728.084101   -966.468698
PC23   7149.808074  14795.408257  22560.989948   -966.892137
PC24 -26478.808650   8684.309751   1781.316620   -963.593927
PC25 -12634.422278  17256.313373  17934.296106   -827.304529
PC26 -24112.791323  -2948.821490 -13776.819570    824.235530
PC27  14346.218609   7317.275306 -22804.998475    626.739162
PC28   3707.958357  23784.724509 -14120.049276     -4.867973
PC29   8097.117895 -26549.451236  -2875.893302    471.972600
PC30  16158.170384 -13335.949159 -18444.584031    485.809270
PC32  22852.183372  13454.377182   8700.517634   -963.558513
PC33  -2560.883018  17878.376588 -21279.371113   -972.563237
PC34 -16052.027639  14153.804153  17893.653006   -540.771432
PC35  -4260.650492 -23935.751060  13721.573263     -7.195948
PC36  13453.899134 -16874.745501 -17660.070911   -799.242064
PC37  23412.778293   4251.347280  14574.687533   -887.867981
PC38 -24887.865482  25244.816617 -22954.230500    188.267501
PC39 -14356.319620  37600.712949 -12306.904146     33.955513
PC40  -7941.741631  22758.630343  34624.197534    216.167513
PC41  14165.104647  22264.239903  -9022.221144   -916.886395
PC42 -18038.723307   2907.382008 -21055.157411   -946.168274
PC43  -8580.356319  26320.245262   3439.155277   -961.846249
PC44 -14624.990496  -7124.035828  22669.829066    460.160315
PC45  -7393.012061 -14576.471478 -22615.554090    596.315822
PC46  26059.679701  -9453.276571  -2990.593766      0.616236
PE01  23195.913373  13739.829601  12217.390660   -513.443475
PE02 -23329.408332 -13665.451810 -12067.692521    259.152338
PE03 -16153.981530 -21264.570033 -12768.349502   -494.146429
PE04  17952.011626   1754.962565  23466.306332   -895.927097
PE05  -4825.196712 -28653.802863   5640.777932   -235.278142
PE07  -9171.963888  19254.951455 -20531.519529   -605.189259
PE08 -17749.823430  -1259.224876 -23660.501328   5907.856650
PE09   8845.228214 -19414.632081  20508.163553   5469.485805
PE11  19616.388905 -22163.051905    550.419659   5114.946826
PE12  22512.607514  -7784.847898 -17573.539277   4918.544713
PE13 -19826.073619  21983.897190     11.630622    423.514661
PE14   -118.128148  28571.976465   3168.537374  -1634.274103
PE15 -22434.620966   7819.322542  17667.627928    781.941313
PE18  10126.273699 -22398.778735 -14133.580913  -1796.085926
PE19  15095.985746  23078.681604  10744.474941    423.295878
PE21   5161.435687  17387.309237  23397.271207   -698.553985
PE24  17820.731681 -10640.209544 -21097.901895  -1216.963421
PE25  -4917.957566 -17368.236370 -23448.828295   -552.966777
PE26  -4637.595733  22873.635476 -18208.653818   1131.833207
PE27 -16784.295088  11255.370031  21643.113957   -161.065183
PE30 -28890.000821  -2397.865170   6033.257651    -16.251064
PE31  28677.573546   1458.102158  -7155.910518   -487.847890
PE33  11808.658341  10906.490659 -24848.100363   -462.744121
PE36   5562.536336 -23156.894721  17581.002175   -287.736227
PG01  -9858.440034  19889.354762 -14597.504226    515.615706
PG02  21337.730200 -14697.679496  -5385.513761   -641.270963
PG03   -904.892853  15539.134371 -21639.424025     -9.340219
PG04  -1134.883762  25847.790481  -5831.434215   -202.228599
PG05  16279.750028  -8511.164435  19070.866555    -60.487780
PG06  20001.474137  -1112.935097 -17403.719580    113.801554
PG07   6025.722241  14786.159675  21537.868032    275.517159
PG08  -7756.342121  19712.349443  15805.962778    -43.470320
PG09   7922.458009  24776.747363   5217.197035   -361.809408
PG10 -23668.502087 -11896.211253   3619.547057   -242.308556
PG11  23355.063105 -10593.502209  -6891.239499     19.977745
PG12   3562.712202 -14913.769827 -21950.317240   -123.823815
PG13  12947.046970 -12851.353971  19097.416394    212.030294
PG14  23053.741355  12813.177689   3378.781700    -35.099569
PG15   5602.023630 -20952.316438  14709.513589   -107.747257
PG16 -19415.981099   3780.972826  17695.686309   -421.217832
PG17  12431.726651  16377.819254 -16362.519307    531.240899
PG18  -6449.259731 -13809.932157  21735.825148    298.212353
PG19  14582.667797   7409.930489 -21225.487447     76.987405
PG20  23731.130058  -3007.964927  11234.933064    518.214449
PG21 -16085.591620  19907.013247  -5177.831553    150.480660
PG22  -9437.876489  13245.496600 -20797.104248   -468.946746
PG23 -16222.469006 -15973.127323  13728.993915     34.994583
PG24  12091.935717 -21285.988513 -10048.037248    265.108353
PG25  -8701.907583 -17332.201604 -18534.341598    237.882817
PG26 -25665.378497  -3806.523097   6301.144736    153.607948
PG27 -12853.767707   9735.884697  20845.175441   -217.033920
PG28  24279.138712   9746.872856  -3310.789077    466.223767
PG29  -3203.485374 -26260.696969   1868.308332   -438.213180
PG30  15691.497325   6912.014535  20404.160845   -489.880074
PG31 -21658.121275   2583.323979 -15581.843731   -149.279458
PG32 -14946.407003 -12056.153963 -18312.461017    -19.878785
PR01  14119.718409   1943.135507  21150.108107     87.891168
PR02    721.389160 -15632.698392  20199.113202    499.485864
PR03 -11567.223244 -21800.035838   6607.872329     46.149384
PR04 -17083.869247 -15750.979884 -10519.528777    113.405523
PR05 -13193.187267  -1048.781586 -21808.944853     82.177454
PR07  11932.701032  21734.912049  -5846.938564    -40.083902
PR08  17176.829485  15567.422824  10658.163995    -61.910563
PR09 -12278.085693  10999.213223  19458.881118     22.669926
PR11  21608.352108   3825.405629  13026.059312     50.476921
PR12  24531.672112  -4799.430617  -4996.441430    277.017476
PR13  13312.725109 -10592.668378 -19016.711869    -63.313710
PR14  -6744.270753 -10188.160340 -22375.082496     70.846605
PR15 -21960.334783  -3847.428472 -12373.364954    100.313143
PR16 -24070.858731   6006.515645   6206.385275    -24.683140
PR17   1663.147430 -20188.928981  15483.504791    473.430633
PR18  -8301.478189  -6751.409548  23175.807581     96.613043
PR19 -14136.320451   9054.808690  19213.683907   -166.329380
PR20 -12228.388232  22295.278583   1796.281714    -59.032409
PR21   -992.442515  19463.294850 -16474.374291   -253.261601
PR22   8777.062359   5688.437289 -23271.734862   -144.113533
PR24  11512.442014 -22725.941808  -1012.557329     66.256538
EOF
